[{"OBJECT_NAME":"ONEWEB-0522","OBJECT_ID":"2022-138AD","EPOCH":"2026-02-23T04:33:21.878784","MEAN_MOTION":13.19725426,"ECCENTRICITY":0.00015882,"INCLINATION":87.9253,"RA_OF_ASC_NODE":327.6507,"ARG_OF_PERICENTER":81.8719,"MEAN_ANOMALY":278.2594,"EPHEMERIS_TYPE":0,"CLASSIFICATION_TYPE":"U","NORAD_CAT_ID":54140,"ELEMENT_SET_NO":999,"REV_AT_EPOCH":16177,"BSTAR":0.00024258115,"MEAN_MOTION_DOT":1.1e-6,"MEAN_MOTION_DDOT":0},{"OBJECT_NAME":"ONEWEB-0523","OBJECT_ID":"2022-138AE","EPOCH":"2026-02-22T22:34:41.205216","MEAN_MOTION":13.20770963,"ECCENTRICITY":0.0002278,"INCLINATION":87.9196,"RA_OF_ASC_NODE":297.2466,"ARG_OF_PERICENTER":68.3836,"MEAN_ANOMALY":291.754,"EPHEMERIS_TYPE":0,"CLASSIFICATION_TYPE":"U","NORAD_CAT_ID":54141,"ELEMENT_SET_NO":999,"REV_AT_EPOCH":16422,"BSTAR":-2.155e-5,"MEAN_MOTION_DOT":4.0e-8,"MEAN_MOTION_DDOT":0},{"OBJECT_NAME":"ONEWEB-0524","OBJECT_ID":"2022-138AF","EPOCH":"2026-02-23T01:56:57.792480","MEAN_MOTION":13.20778014,"ECCENTRICITY":0.00024955,"INCLINATION":87.919,"RA_OF_ASC_NODE":297.2188,"ARG_OF_PERICENTER":89.3677,"MEAN_ANOMALY":270.7742,"EPHEMERIS_TYPE":0,"CLASSIFICATION_TYPE":"U","NORAD_CAT_ID":54142,"ELEMENT_SET_NO":999,"REV_AT_EPOCH":16424,"BSTAR":-0.0030120635,"MEAN_MOTION_DOT":-1.212e-5,"MEAN_MOTION_DDOT":0},{"OBJECT_NAME":"ONEWEB-0525","OBJECT_ID":"2022-138AG","EPOCH":"2026-02-23T05:00:39.207168","MEAN_MOTION":13.19725293,"ECCENTRICITY":0.00015582,"INCLINATION":87.925,"RA_OF_ASC_NODE":327.6626,"ARG_OF_PERICENTER":86.2671,"MEAN_ANOMALY":273.864,"EPHEMERIS_TYPE":0,"CLASSIFICATION_TYPE":"U","NORAD_CAT_ID":54143,"ELEMENT_SET_NO":999,"REV_AT_EPOCH":16179,"BSTAR":0.00027571156,"MEAN_MOTION_DOT":1.23e-6,"MEAN_MOTION_DDOT":0},{"OBJECT_NAME":"ONEWEB-0526","OBJECT_ID":"2022-138AH","EPOCH":"2026-02-23T03:59:12.708384","MEAN_MOTION":13.19738096,"ECCENTRICITY":0.00016444,"INCLINATION":87.9261,"RA_OF_ASC_NODE":327.6633,"ARG_OF_PERICENTER":83.8061,"MEAN_ANOMALY":276.3259,"EPHEMERIS_TYPE":0,"CLASSIFICATION_TYPE":"U","NORAD_CAT_ID":54144,"ELEMENT_SET_NO":999,"REV_AT_EPOCH":16176,"BSTAR":-0.0067990376,"MEAN_MOTION_DOT":-2.709e-5,"MEAN_MOTION_DDOT":0},{"OBJECT_NAME":"ONEWEB-0529","OBJECT_ID":"2022-138AJ","EPOCH":"2026-02-23T04:03:47.648736","MEAN_MOTION":13.19724991,"ECCENTRICITY":0.00016236,"INCLINATION":87.9246,"RA_OF_ASC_NODE":327.6836,"ARG_OF_PERICENTER":86.9713,"MEAN_ANOMALY":273.1606,"EPHEMERIS_TYPE":0,"CLASSIFICATION_TYPE":"U","NORAD_CAT_ID":54145,"ELEMENT_SET_NO":999,"REV_AT_EPOCH":16178,"BSTAR":0.00029350356,"MEAN_MOTION_DOT":1.3e-6,"MEAN_MOTION_DDOT":0},{"OBJECT_NAME":"ONEWEB-0531","OBJECT_ID":"2022-138AK","EPOCH":"2026-02-23T03:25:35.333184","MEAN_MOTION":13.2077204,"ECCENTRICITY":0.00024999,"INCLINATION":87.9195,"RA_OF_ASC_NODE":297.2032,"ARG_OF_PERICENTER":76.0181,"MEAN_ANOMALY":284.123,"EPHEMERIS_TYPE":0,"CLASSIFICATION_TYPE":"U","NORAD_CAT_ID":54146,"ELEMENT_SET_NO":999,"REV_AT_EPOCH":16425,"BSTAR":0.0001807975,"MEAN_MOTION_DOT":8.6e-7,"MEAN_MOTION_DDOT":0},{"OBJECT_NAME":"ONEWEB-0535","OBJECT_ID":"2022-138AL","EPOCH":"2026-02-23T04:51:33.873696","MEAN_MOTION":13.19725228,"ECCENTRICITY":0.00019406,"INCLINATION":87.9253,"RA_OF_ASC_NODE":327.652,"ARG_OF_PERICENTER":69.7387,"MEAN_ANOMALY":290.3954,"EPHEMERIS_TYPE":0,"CLASSIFICATION_TYPE":"U","NORAD_CAT_ID":54147,"ELEMENT_SET_NO":999,"REV_AT_EPOCH":16180,"BSTAR":0.00020099952,"MEAN_MOTION_DOT":9.3e-7,"MEAN_MOTION_DDOT":0},{"OBJECT_NAME":"ONEWEB-0536","OBJECT_ID":"2022-138AM","EPOCH":"2026-02-23T03:07:24.495168","MEAN_MOTION":13.20772048,"ECCENTRICITY":0.00026208,"INCLINATION":87.9183,"RA_OF_ASC_NODE":297.2421,"ARG_OF_PERICENTER":77.2359,"MEAN_ANOMALY":282.9068,"EPHEMERIS_TYPE":0,"CLASSIFICATION_TYPE":"U","NORAD_CAT_ID":54148,"ELEMENT_SET_NO":999,"REV_AT_EPOCH":16424,"BSTAR":5.6670344e-5,"MEAN_MOTION_DOT":3.6e-7,"MEAN_MOTION_DDOT":0},{"OBJECT_NAME":"ONEWEB-0527","OBJECT_ID":"2022-166A","EPOCH":"2026-02-23T00:29:35.703168","MEAN_MOTION":13.21824534,"ECCENTRICITY":0.00016469,"INCLINATION":87.9168,"RA_OF_ASC_NODE":266.7696,"ARG_OF_PERICENTER":90.1685,"MEAN_ANOMALY":269.9638,"EPHEMERIS_TYPE":0,"CLASSIFICATION_TYPE":"U","NORAD_CAT_ID":54642,"ELEMENT_SET_NO":999,"REV_AT_EPOCH":15645,"BSTAR":0.0002571991,"MEAN_MOTION_DOT":1.19e-6,"MEAN_MOTION_DDOT":0},{"OBJECT_NAME":"ONEWEB-0528","OBJECT_ID":"2022-166B","EPOCH":"2026-02-23T00:39:04.486464","MEAN_MOTION":13.21825973,"ECCENTRICITY":0.00015933,"INCLINATION":87.9169,"RA_OF_ASC_NODE":266.7719,"ARG_OF_PERICENTER":91.2021,"MEAN_ANOMALY":268.9296,"EPHEMERIS_TYPE":0,"CLASSIFICATION_TYPE":"U","NORAD_CAT_ID":54643,"ELEMENT_SET_NO":999,"REV_AT_EPOCH":15646,"BSTAR":-8.7444833e-5,"MEAN_MOTION_DOT":-2.3e-7,"MEAN_MOTION_DDOT":0},{"OBJECT_NAME":"ONEWEB-0539","OBJECT_ID":"2022-166C","EPOCH":"2026-02-23T03:22:34.652640","MEAN_MOTION":13.21825146,"ECCENTRICITY":0.00013774,"INCLINATION":87.917,"RA_OF_ASC_NODE":266.7142,"ARG_OF_PERICENTER":87.834,"MEAN_ANOMALY":272.2952,"EPHEMERIS_TYPE":0,"CLASSIFICATION_TYPE":"U","NORAD_CAT_ID":54644,"ELEMENT_SET_NO":999,"REV_AT_EPOCH":15647,"BSTAR":0.00035500986,"MEAN_MOTION_DOT":1.6e-6,"MEAN_MOTION_DDOT":0},{"OBJECT_NAME":"ONEWEB-0540","OBJECT_ID":"2022-166D","EPOCH":"2026-02-23T01:43:14.818656","MEAN_MOTION":13.21826863,"ECCENTRICITY":0.00015114,"INCLINATION":87.9172,"RA_OF_ASC_NODE":266.7646,"ARG_OF_PERICENTER":84.3833,"MEAN_ANOMALY":275.7473,"EPHEMERIS_TYPE":0,"CLASSIFICATION_TYPE":"U","NORAD_CAT_ID":54645,"ELEMENT_SET_NO":999,"REV_AT_EPOCH":15645,"BSTAR":0.00027221638,"MEAN_MOTION_DOT":1.25e-6,"MEAN_MOTION_DDOT":0},{"OBJECT_NAME":"ONEWEB-0542","OBJECT_ID":"2022-166E","EPOCH":"2026-02-23T03:36:48.084192","MEAN_MOTION":13.2182855,"ECCENTRICITY":0.00013582,"INCLINATION":87.9175,"RA_OF_ASC_NODE":266.708,"ARG_OF_PERICENTER":77.7489,"MEAN_ANOMALY":282.3796,"EPHEMERIS_TYPE":0,"CLASSIFICATION_TYPE":"U","NORAD_CAT_ID":54646,"ELEMENT_SET_NO":999,"REV_AT_EPOCH":15647,"BSTAR":0.00013036516,"MEAN_MOTION_DOT":6.7e-7,"MEAN_MOTION_DDOT":0},{"OBJECT_NAME":"ONEWEB-0545","OBJECT_ID":"2022-166F","EPOCH":"2026-02-23T02:47:02.017248","MEAN_MOTION":13.21825316,"ECCENTRICITY":0.00013301,"INCLINATION":87.9169,"RA_OF_ASC_NODE":266.7361,"ARG_OF_PERICENTER":70.7849,"MEAN_ANOMALY":289.3429,"EPHEMERIS_TYPE":0,"CLASSIFICATION_TYPE":"U","NORAD_CAT_ID":54647,"ELEMENT_SET_NO":999,"REV_AT_EPOCH":15643,"BSTAR":9.0733829e-5,"MEAN_MOTION_DOT":5.0e-7,"MEAN_MOTION_DDOT":0},{"OBJECT_NAME":"ONEWEB-0580","OBJECT_ID":"2022-166G","EPOCH":"2026-02-23T02:09:07.370496","MEAN_MOTION":13.21825005,"ECCENTRICITY":0.0001526,"INCLINATION":87.9172,"RA_OF_ASC_NODE":266.741,"ARG_OF_PERICENTER":73.7098,"MEAN_ANOMALY":286.4203,"EPHEMERIS_TYPE":0,"CLASSIFICATION_TYPE":"U","NORAD_CAT_ID":54648,"ELEMENT_SET_NO":999,"REV_AT_EPOCH":15647,"BSTAR":0.0001244213,"MEAN_MOTION_DOT":6.4e-7,"MEAN_MOTION_DDOT":0},{"OBJECT_NAME":"ONEWEB-0582","OBJECT_ID":"2022-166H","EPOCH":"2026-02-23T03:10:43.772448","MEAN_MOTION":13.21824988,"ECCENTRICITY":0.00013591,"INCLINATION":87.9168,"RA_OF_ASC_NODE":266.7257,"ARG_OF_PERICENTER":72.5772,"MEAN_ANOMALY":287.5511,"EPHEMERIS_TYPE":0,"CLASSIFICATION_TYPE":"U","NORAD_CAT_ID":54649,"ELEMENT_SET_NO":999,"REV_AT_EPOCH":15645,"BSTAR":-3.6548257e-5,"MEAN_MOTION_DOT":-2.0e-8,"MEAN_MOTION_DDOT":0}]
