ONEWEB-0522             
1 54140U 22138AD  26054.18983656  .00000110  00000+0  24258-3 0  9998
2 54140  87.9253 327.6507 0001588  81.8719 278.2594 13.19725426161775
ONEWEB-0523             
1 54141U 22138AE  26053.94075469  .00000004  00000+0 -21550-4 0  9992
2 54141  87.9196 297.2466 0002278  68.3836 291.7540 13.20770963164227
ONEWEB-0524             
1 54142U 22138AF  26054.08122445 -.00001212  00000+0 -30121-2 0  9991
2 54142  87.9190 297.2188 0002495  89.3677 270.7742 13.20778014164248
ONEWEB-0525             
1 54143U 22138AG  26054.20878712  .00000123  00000+0  27571-3 0  9995
2 54143  87.9250 327.6626 0001558  86.2671 273.8640 13.19725293161797
ONEWEB-0526             
1 54144U 22138AH  26054.16611931 -.00002709  00000+0 -67990-2 0  9991
2 54144  87.9261 327.6633 0001644  83.8061 276.3259 13.19738096161766
ONEWEB-0529             
1 54145U 22138AJ  26054.16930149  .00000130  00000+0  29350-3 0  9990
2 54145  87.9246 327.6836 0001623  86.9713 273.1606 13.19724991161782
ONEWEB-0531             
1 54146U 22138AK  26054.14277006  .00000086  00000+0  18080-3 0  9993
2 54146  87.9195 297.2032 0002499  76.0181 284.1230 13.20772040164257
ONEWEB-0535             
1 54147U 22138AL  26054.20247539  .00000093  00000+0  20100-3 0  9993
2 54147  87.9253 327.6520 0001940  69.7387 290.3954 13.19725228161804
ONEWEB-0536             
1 54148U 22138AM  26054.13014462  .00000036  00000+0  56670-4 0  9992
2 54148  87.9183 297.2421 0002620  77.2359 282.9068 13.20772048164246
ONEWEB-0527             
1 54642U 22166A   26054.02055212  .00000119  00000+0  25720-3 0  9991
2 54642  87.9168 266.7696 0001646  90.1685 269.9638 13.21824534156457
ONEWEB-0528             
1 54643U 22166B   26054.02713526 -.00000023  00000+0 -87445-4 0  9990
2 54643  87.9169 266.7719 0001593  91.2021 268.9296 13.21825973156460
ONEWEB-0539             
1 54644U 22166C   26054.14067885  .00000160  00000+0  35501-3 0  9999
2 54644  87.9170 266.7142 0001377  87.8340 272.2952 13.21825146156478
ONEWEB-0540             
1 54645U 22166D   26054.07169929  .00000125  00000+0  27222-3 0  9996
2 54645  87.9172 266.7646 0001511  84.3833 275.7473 13.21826863156450
ONEWEB-0542             
1 54646U 22166E   26054.15055653  .00000067  00000+0  13037-3 0  9998
2 54646  87.9175 266.7080 0001358  77.7489 282.3796 13.21828550156477
ONEWEB-0545             
1 54647U 22166F   26054.11599557  .00000050  00000+0  90734-4 0  9993
2 54647  87.9169 266.7361 0001330  70.7849 289.3429 13.21825316156439
ONEWEB-0580             
1 54648U 22166G   26054.08966864  .00000064  00000+0  12442-3 0  9993
2 54648  87.9172 266.7410 0001526  73.7098 286.4203 13.21825005156472
ONEWEB-0582             
1 54649U 22166H   26054.13245107 -.00000002  00000+0 -36548-4 0  9998
2 54649  87.9168 266.7257 0001359  72.5772 287.5511 13.21824988156458
